GLOBALSTAR M024 [-]     
1 25883U 99043A   23314.59295169 -.00000035  00000+0  10659-2 0  9991
2 25883  52.0023 259.6524 0000718 209.5665 320.6706 11.10158051 49934
GLOBALSTAR M027 [-]     
1 25884U 99043B   23314.42236006 -.00000088  00000+0 -92265-3 0  9992
2 25884  52.0229 321.4590 0021301 126.4834 233.7925 11.04365661 76634
GLOBALSTAR M054 [-]     
1 25885U 99043C   23314.43356416 -.00000093  00000+0 -55834-3 0  9999
2 25885  52.0121 186.8586 0003579 240.5244 290.8811 11.39202218 52407
GLOBALSTAR M053 [-]     
1 25886U 99043D   23314.57029466 -.00000062  00000+0  19379-3 0  9996
2 25886  51.9960 101.1916 0003973 156.2654 283.3899 11.27652272 53499
GLOBALSTAR M058 [-]     
1 25907U 99049A   23314.50014002 -.00000058  00000+0  35596-3 0  9993
2 25907  51.9937 230.4006 0001698 214.1486 145.9240 11.93168886471743
GLOBALSTAR M050 [-]     
1 25908U 99049B   23314.63374113 -.00000167  00000+0 -88976-3 0  9992
2 25908  51.9993 281.3900 0008977 310.3733 221.2523 12.07423550 77578
GLOBALSTAR M033 [-]     
1 25909U 99049C   23313.93669765 -.00000097  00000+0 -47566-4 0  9998
2 25909  51.9903 195.5597 0011806 146.0359 214.1246 12.20259284464299
GLOBALSTAR M055 [-]     
1 25910U 99049D   23314.45342311 -.00000069  00000+0  21244-3 0  9995
2 25910  52.0017 233.3073 0007438   3.2894 356.8006 12.29390201 96364
